{
  "type": "FeatureCollection",
  "features": [
    {
      "type": "Feature",
      "properties": {
        "norad_id": 31619,
        "name": "FENGYUN 1C DEB",
        "group": "fengyun-1c-debris",
        "lat": 72.12871211732305,
        "lon": 159.81473639671964,
        "alt_km": 667.1504547858431,
        "timestamp": "2025-12-21T16:47:55.021777+00:00",
        "meta_object_name": "FENGYUN 1C DEB",
        "meta_object_id": "1999-025BZZ",
        "meta_epoch": "2025-12-21T06:45:55.955232",
        "meta_mean_motion": 14.86149354,
        "meta_eccentricity": 0.0094151,
        "meta_inclination": 99.071,
        "meta_ra_of_asc_node": 189.0401,
        "meta_arg_of_pericenter": 268.2208,
        "meta_mean_anomaly": 90.8218,
        "meta_ephemeris_type": 0,
        "meta_classification_type": "U",
        "meta_norad_cat_id": 31619,
        "meta_element_set_no": 999,
        "meta_rev_at_epoch": 63615,
        "meta_bstar": 0.0037749,
        "meta_mean_motion_dot": 0.00035976,
        "meta_mean_motion_ddot": 0,
        "tle_line1": "1 31619U 99025BZZ 25355.28189763  .00035976  00000+0  37749-2 0  9990",
        "tle_line2": "2 31619  99.0710 189.0401 0094151 268.2208  90.8218 14.86149354636153"
      },
      "geometry": {
        "type": "Point",
        "coordinates": [
          159.81473639671964,
          72.12871211732305
        ]
      }
    },
    {
      "type": "Feature",
      "properties": {
        "norad_id": 31620,
        "name": "FENGYUN 1C DEB",
        "group": "fengyun-1c-debris",
        "lat": -68.952949274513,
        "lon": 104.07038416980244,
        "alt_km": 773.3642371384158,
        "timestamp": "2025-12-21T16:47:55.021787+00:00",
        "meta_object_name": "FENGYUN 1C DEB",
        "meta_object_id": "1999-025CAA",
        "meta_epoch": "2025-12-18T12:16:26.023584",
        "meta_mean_motion": 14.37303737,
        "meta_eccentricity": 0.00195289,
        "meta_inclination": 98.8873,
        "meta_ra_of_asc_node": 76.7848,
        "meta_arg_of_pericenter": 23.9081,
        "meta_mean_anomaly": 336.3007,
        "meta_ephemeris_type": 0,
        "meta_classification_type": "U",
        "meta_norad_cat_id": 31620,
        "meta_element_set_no": 999,
        "meta_rev_at_epoch": 65927,
        "meta_bstar": 0.0019950798,
        "meta_mean_motion_dot": 5.921e-05,
        "meta_mean_motion_ddot": 0,
        "tle_line1": "1 31620U 99025CAA 25352.51141231  .00005921  00000+0  19951-2 0  9995",
        "tle_line2": "2 31620  98.8873  76.7848 0019528  23.9081 336.3007 14.37303737659274"
      },
      "geometry": {
        "type": "Point",
        "coordinates": [
          104.07038416980244,
          -68.952949274513
        ]
      }
    },
    {
      "type": "Feature",
      "properties": {
        "norad_id": 31622,
        "name": "FENGYUN 1C DEB",
        "group": "fengyun-1c-debris",
        "lat": -80.9018947614083,
        "lon": 166.43839971273667,
        "alt_km": 766.7065885987204,
        "timestamp": "2025-12-21T16:47:55.021810+00:00",
        "meta_object_name": "FENGYUN 1C DEB",
        "meta_object_id": "1999-025CAC",
        "meta_epoch": "2025-12-21T05:38:37.239072",
        "meta_mean_motion": 14.3726207,
        "meta_eccentricity": 0.0015203,
        "meta_inclination": 98.8168,
        "meta_ra_of_asc_node": 90.2179,
        "meta_arg_of_pericenter": 314.9507,
        "meta_mean_anomaly": 73.8848,
        "meta_ephemeris_type": 0,
        "meta_classification_type": "U",
        "meta_norad_cat_id": 31622,
        "meta_element_set_no": 999,
        "meta_rev_at_epoch": 95894,
        "meta_bstar": 0.0013467,
        "meta_mean_motion_dot": 3.974e-05,
        "meta_mean_motion_ddot": 0,
        "tle_line1": "1 31622U 99025CAC 25355.23515323  .00003974  00000+0  13467-2 0  9998",
        "tle_line2": "2 31622  98.8168  90.2179 0015203 314.9507  73.8848 14.37262070958949"
      },
      "geometry": {
        "type": "Point",
        "coordinates": [
          166.43839971273667,
          -80.9018947614083
        ]
      }
    },
    {
      "type": "Feature",
      "properties": {
        "norad_id": 31623,
        "name": "FENGYUN 1C DEB",
        "group": "fengyun-1c-debris",
        "lat": -62.83010278946155,
        "lon": 10.458485465151053,
        "alt_km": 977.638916985813,
        "timestamp": "2025-12-21T16:47:55.021822+00:00",
        "meta_object_name": "FENGYUN 1C DEB",
        "meta_object_id": "1999-025CAD",
        "meta_epoch": "2025-12-21T08:39:42.357024",
        "meta_mean_motion": 13.82603376,
        "meta_eccentricity": 0.0194296,
        "meta_inclination": 97.6289,
        "meta_ra_of_asc_node": 205.32,
        "meta_arg_of_pericenter": 342.2032,
        "meta_mean_anomaly": 17.2386,
        "meta_ephemeris_type": 0,
        "meta_classification_type": "U",
        "meta_norad_cat_id": 31623,
        "meta_element_set_no": 999,
        "meta_rev_at_epoch": 58039,
        "meta_bstar": 0.00033865,
        "meta_mean_motion_dot": 3.92e-06,
        "meta_mean_motion_ddot": 0,
        "tle_line1": "1 31623U 99025CAD 25355.36090691  .00000392  00000+0  33865-3 0  9995",
        "tle_line2": "2 31623  97.6289 205.3200 0194296 342.2032  17.2386 13.82603376580398"
      },
      "geometry": {
        "type": "Point",
        "coordinates": [
          10.458485465151053,
          -62.83010278946155
        ]
      }
    },
    {
      "type": "Feature",
      "properties": {
        "norad_id": 31625,
        "name": "FENGYUN 1C DEB",
        "group": "fengyun-1c-debris",
        "lat": 59.29664603564293,
        "lon": -82.6581961902992,
        "alt_km": 770.5176759399246,
        "timestamp": "2025-12-21T16:47:55.021833+00:00",
        "meta_object_name": "FENGYUN 1C DEB",
        "meta_object_id": "1999-025CAF",
        "meta_epoch": "2025-12-21T04:50:27.129696",
        "meta_mean_motion": 14.55410168,
        "meta_eccentricity": 0.01487938,
        "meta_inclination": 98.8055,
        "meta_ra_of_asc_node": 81.6855,
        "meta_arg_of_pericenter": 350.0152,
        "meta_mean_anomaly": 39.1675,
        "meta_ephemeris_type": 0,
        "meta_classification_type": "U",
        "meta_norad_cat_id": 31625,
        "meta_element_set_no": 999,
        "meta_rev_at_epoch": 98516,
        "meta_bstar": 0.00010124712,
        "meta_mean_motion_dot": 4.49e-06,
        "meta_mean_motion_ddot": 0,
        "tle_line1": "1 31625U 99025CAF 25355.20170289  .00000449  00000+0  10125-3 0  9999",
        "tle_line2": "2 31625  98.8055  81.6855 0148793 350.0152  39.1675 14.55410168985160"
      },
      "geometry": {
        "type": "Point",
        "coordinates": [
          -82.6581961902992,
          59.29664603564293
        ]
      }
    },
    {
      "type": "Feature",
      "properties": {
        "norad_id": 31627,
        "name": "FENGYUN 1C DEB",
        "group": "fengyun-1c-debris",
        "lat": 69.40681326662227,
        "lon": 19.926932254322743,
        "alt_km": 745.3276832162492,
        "timestamp": "2025-12-21T16:47:55.021842+00:00",
        "meta_object_name": "FENGYUN 1C DEB",
        "meta_object_id": "1999-025CAH",
        "meta_epoch": "2025-11-26T09:13:22.975680",
        "meta_mean_motion": 14.35408996,
        "meta_eccentricity": 0.00515931,
        "meta_inclination": 98.5313,
        "meta_ra_of_asc_node": 18.4415,
        "meta_arg_of_pericenter": 201.9005,
        "meta_mean_anomaly": 157.9975,
        "meta_ephemeris_type": 0,
        "meta_classification_type": "U",
        "meta_norad_cat_id": 31627,
        "meta_element_set_no": 999,
        "meta_rev_at_epoch": 64532,
        "meta_bstar": 0.0013473839,
        "meta_mean_motion_dot": 3.885e-05,
        "meta_mean_motion_ddot": 0,
        "tle_line1": "1 31627U 99025CAH 25330.38429370  .00003885  00000+0  13474-2 0  9997",
        "tle_line2": "2 31627  98.5313  18.4415 0051593 201.9005 157.9975 14.35408996645325"
      },
      "geometry": {
        "type": "Point",
        "coordinates": [
          19.926932254322743,
          69.40681326662227
        ]
      }
    },
    {
      "type": "Feature",
      "properties": {
        "norad_id": 31628,
        "name": "FENGYUN 1C DEB",
        "group": "fengyun-1c-debris",
        "lat": -77.6901113647127,
        "lon": -60.8881050919477,
        "alt_km": 907.2872660715993,
        "timestamp": "2025-12-21T16:47:55.021853+00:00",
        "meta_object_name": "FENGYUN 1C DEB",
        "meta_object_id": "1999-025CAJ",
        "meta_epoch": "2025-12-21T08:34:35.954976",
        "meta_mean_motion": 13.86871467,
        "meta_eccentricity": 0.0167844,
        "meta_inclination": 102.2707,
        "meta_ra_of_asc_node": 212.8497,
        "meta_arg_of_pericenter": 199.5554,
        "meta_mean_anomaly": 159.9101,
        "meta_ephemeris_type": 0,
        "meta_classification_type": "U",
        "meta_norad_cat_id": 31628,
        "meta_element_set_no": 999,
        "meta_rev_at_epoch": 93419,
        "meta_bstar": 0.0013411,
        "meta_mean_motion_dot": 1.682e-05,
        "meta_mean_motion_ddot": 0,
        "tle_line1": "1 31628U 99025CAJ 25355.35736059  .00001682  00000+0  13411-2 0  9991",
        "tle_line2": "2 31628 102.2707 212.8497 0167844 199.5554 159.9101 13.86871467934195"
      },
      "geometry": {
        "type": "Point",
        "coordinates": [
          -60.8881050919477,
          -77.6901113647127
        ]
      }
    }
  ]
}